PROX-1                  
1 44339U 19036A   26202.25546393  .00008837  00000+0  83668-3 0  9990
2 44339  23.9938 246.5393 0006421  73.6904 286.4301 14.91324342378569
NPSAT1                  
1 44340U 19036B   26202.62652205  .00004526  00000+0  62389-3 0  9991
2 44340  24.0006 353.4032 0007211 241.7925 118.1843 14.74860602377584
FORMOSAT 7-3            
1 44343U 19036E   26202.48111421  .00003638  00000+0  19721-3 0  9993
2 44343  23.9996 302.4695 0000568  14.9916 345.0604 15.10025564388433
FORMOSAT 7-1            
1 44349U 19036L   26202.58428755  .00001873  00000+0  13447-3 0  9999
2 44349  23.9966 160.4721 0000626 195.2459 164.8023 14.96628955389819
FORMOSAT 7-4            
1 44350U 19036M   26202.40687265  .00001667  00000+0  11679-3 0  9991
2 44350  23.9966 223.7810 0000877 214.4477 145.5967 14.96624379389207
FORMOSAT 7-2            
1 44351U 19036N   26202.56258411  .00001791  00000+0  12746-3 0  9990
2 44351  23.9979 277.0485 0000349 198.0179 162.0310 14.96625941388742
FORMOSAT 7-6            
1 44353U 19036Q   26202.02877614  .00001709  00000+0  12039-3 0  9999
2 44353  23.9976 101.4518 0001318 129.2050 230.8568 14.96627432386899
FORMOSAT 7-5            
1 44358U 19036V   26202.60635740  .00002029  00000+0  14789-3 0  9990
2 44358  23.9994  36.3132 0000104 164.6247 195.4257 14.96610915387514
METEOR-M2 2             
1 44387U 19038A   26202.59493963  .00000006  00000+0  22330-4 0  9996
2 44387  98.9173 190.3918 0000325 351.7673   8.3500 14.24373490366196
GLOBAL-4                
1 44499U 19054E   26202.52273597  .00059030  00000+0  52670-3 0  9990
2 44499  45.0059  37.7935 0006405 235.3523 124.6772 15.67622519385747
ZY-1 02D                
1 44528U 19059A   26202.64559361  .00000256  00000+0  10526-3 0  9997
2 44528  98.6704 264.2322 0002988 272.1725  87.9118 14.35270349359282
TAURUS-1 (JINNIUZUO 1)  
1 44530U 19059C   26202.63192168  .00004858  00000+0  77489-3 0  9990
2 44530  98.6451   9.6102 0008517 194.4589 165.6374 14.72409433363719
ZHUHAI-1 03B            
1 44536U 19060C   26202.61015744  .00028910  00000+0  41723-3 0  9997
2 44536  97.5563   2.2914 0008807 182.4527 177.6686 15.55898448381672
ZHUHAI-1 03D            
1 44538U 19060E   26202.68155619  .00034052  00000+0  57301-3 0  9995
2 44538  97.5402 354.1843 0007865 168.1847 191.9591 15.51626030381424
ZHUHAI-1 03E            
1 44539U 19060F   26202.58080686  .00014999  00000+0  35295-3 0  9992
2 44539  97.5652 353.7564 0004586 246.7100 113.3664 15.42058856381063
GAOFEN-7                
1 44703U 19072A   26202.59916049  .00002983  00000+0  13754-3 0  9996
2 44703  97.5699 263.3662 0016900 288.1871  71.7524 15.20949063372876
JILIN-1 GAOFEN 2A       
1 44777U 19075A   26202.57859982  .00014256  00000+0  35765-3 0  9992
2 44777  97.4952 287.1920 0004631 328.1539  31.9426 15.40124660370173
NINGXIA-1 1             
1 44779U 19076A   26202.59905663 -.00000064  00000+0  43061-4 0  9997
2 44779  45.0069  26.0707 0011268 317.9058  42.0909 14.02042792342688
NINGXIA-1 5             
1 44783U 19076E   26202.61116209 -.00000249  00000+0 -77774-4 0  9999
2 44783  45.0066  25.3460 0011270 308.5277  51.4546 14.02089810342605
KL-ALPHA A              
1 44785U 19077A   26202.57917220  .00000056  00000+0  62113-4 0  9994
2 44785  88.9236 218.8029 0011784  20.0528 340.1087 13.56046068330394
CARTOSAT-3              
1 44804U 19081A   26202.60410807  .00003180  00000+0  15401-3 0  9992
2 44804  97.4280 263.9133 0012473  39.1860 321.0275 15.19211162368694
JILIN-1 GAOFEN 2B       
1 44836U 19086A   26202.62272001  .00005403  00000+0  24588-3 0  9992
2 44836  97.4864 274.4030 0013840 192.4087 167.6810 15.21045950365726
TIANQIN 1 (CAS-6)       
1 44879U 19093A   26202.61380242  .00000670  00000+0  65608-4 0  9993
2 44879  97.7799 286.2077 0009832 303.4159  56.6120 14.95573365357194
ETRSS-1                 
1 44880U 19093B   26202.61044177  .00000940  00000+0  88952-4 0  9996
2 44880  97.7820 286.6945 0009907 304.1701  55.8580 14.96026182357207
TIANYAN 01              
1 44881U 19093C   26202.64279442  .00000671  00000+0  81716-4 0  9997
2 44881  97.7513 274.0327 0012970 340.2699  19.8014 14.86568109356539
TIANYAN 02              
1 44882U 19093D   26202.61651064  .00005960  00000+0  41728-3 0  9993
2 44882  97.7931 297.7462 0012513 264.5527  95.4272 15.05577649357793
CBERS 4A                
1 44883U 19093E   26202.60442193  .00000595  00000+0  82865-4 0  9991
2 44883  98.0171 270.0719 0001844 127.2500 232.8881 14.81450409356175
WEILAI 1R               
1 44884U 19093F   26202.59133635  .00003707  00000+0  29537-3 0  9992
2 44884  97.7888 292.5429 0014841 285.9847  73.9741 15.00900452357586
