OBJECT_NAME,OBJECT_ID,EPOCH,MEAN_MOTION,ECCENTRICITY,INCLINATION,RA_OF_ASC_NODE,ARG_OF_PERICENTER,MEAN_ANOMALY,EPHEMERIS_TYPE,CLASSIFICATION_TYPE,NORAD_CAT_ID,ELEMENT_SET_NO,REV_AT_EPOCH,BSTAR,MEAN_MOTION_DOT,MEAN_MOTION_DDOT
PROX-1,2019-036A,2026-07-21T06:07:52.083552,14.91324342,.00064218,23.9938,246.5393,73.6904,286.4301,0,U,44339,999,37856,.83668301E-3,.8837E-4,0
NPSAT1,2019-036B,2026-07-21T15:02:11.505120,14.74860602,.00072117,24.0006,353.4032,241.7925,118.1843,0,U,44340,999,37758,.62389129E-3,.4526E-4,0
FORMOSAT 7-3,2019-036E,2026-07-21T11:32:48.267744,15.10025564,.00005683,23.9996,302.4695,14.9916,345.0604,0,U,44343,999,38843,.19720739E-3,.3638E-4,0
FORMOSAT 7-1,2019-036L,2026-07-21T14:01:22.444320,14.96628955,.00006267,23.9966,160.4721,195.2459,164.8023,0,U,44349,999,38981,.1344678E-3,.1873E-4,0
FORMOSAT 7-4,2019-036M,2026-07-21T09:45:53.796960,14.96624379,.00008773,23.9966,223.7810,214.4477,145.5967,0,U,44350,999,38920,.11679367E-3,.1667E-4,0
FORMOSAT 7-2,2019-036N,2026-07-21T13:30:07.267104,14.96625941,.00003494,23.9979,277.0485,198.0179,162.0310,0,U,44351,999,38874,.12745983E-3,.1791E-4,0
FORMOSAT 7-6,2019-036Q,2026-07-21T00:41:26.258496,14.96627432,.0001318,23.9976,101.4518,129.2050,230.8568,0,U,44353,999,38689,.12038833E-3,.1709E-4,0
FORMOSAT 7-5,2019-036V,2026-07-21T14:33:09.279360,14.96610915,.00001046,23.9994,36.3132,164.6247,195.4257,0,U,44358,999,38751,.14789134E-3,.2029E-4,0
METEOR-M2 2,2019-038A,2026-07-21T14:16:42.784032,14.24373490,.00003252,98.9173,190.3918,351.7673,8.3500,0,U,44387,999,36619,.22329771E-4,.6E-7,0
GLOBAL-4,2019-054E,2026-07-21T12:32:44.387808,15.67622519,.00064056,45.0059,37.7935,235.3523,124.6772,0,U,44499,999,38574,.52669758E-3,.5903E-3,0
ZY-1 02D,2019-059A,2026-07-21T15:29:39.287904,14.35270349,.00029885,98.6704,264.2322,272.1725,87.9118,0,U,44528,999,35928,.10525837E-3,.256E-5,0
TAURUS-1 (JINNIUZUO 1),2019-059C,2026-07-21T15:09:58.033152,14.72409433,.00085173,98.6451,9.6102,194.4589,165.6374,0,U,44530,999,36371,.77489024E-3,.4858E-4,0
ZHUHAI-1 03B,2019-060C,2026-07-21T14:38:37.602816,15.55898448,.00088077,97.5563,2.2914,182.4527,177.6686,0,U,44536,999,38167,.41722825E-3,.2891E-3,0
ZHUHAI-1 03D,2019-060E,2026-07-21T16:21:26.454816,15.51626030,.00078652,97.5402,354.1843,168.1847,191.9591,0,U,44538,999,38142,.5730109E-3,.34052E-3,0
ZHUHAI-1 03E,2019-060F,2026-07-21T13:56:21.712704,15.42058856,.00045862,97.5652,353.7564,246.7100,113.3664,0,U,44539,999,38106,.35295381E-3,.14999E-3,0
GAOFEN-7,2019-072A,2026-07-21T14:22:47.466336,15.20949063,.00169007,97.5699,263.3662,288.1871,71.7524,0,U,44703,999,37287,.13754477E-3,.2983E-4,0
JILIN-1 GAOFEN 2A,2019-075A,2026-07-21T13:53:11.024448,15.40124660,.00046319,97.4952,287.1920,328.1539,31.9426,0,U,44777,999,37017,.35765337E-3,.14256E-3,0
NINGXIA-1 1,2019-076A,2026-07-21T14:22:38.492832,14.02042792,.00112687,45.0069,26.0707,317.9058,42.0909,0,U,44779,999,34268,.4306051E-4,-.64E-6,0
NINGXIA-1 5,2019-076E,2026-07-21T14:40:04.404576,14.02089810,.00112702,45.0066,25.3460,308.5277,51.4546,0,U,44783,999,34260,-.7777396E-4,-.249E-5,0
KL-ALPHA A,2019-077A,2026-07-21T13:54:00.478080,13.56046068,.00117849,88.9236,218.8029,20.0528,340.1087,0,U,44785,999,33039,.62113189E-4,.56E-6,0
CARTOSAT-3,2019-081A,2026-07-21T14:29:54.937248,15.19211162,.00124731,97.4280,263.9133,39.1860,321.0275,0,U,44804,999,36869,.15401152E-3,.318E-4,0
JILIN-1 GAOFEN 2B,2019-086A,2026-07-21T14:56:43.008864,15.21045950,.00138409,97.4864,274.4030,192.4087,167.6810,0,U,44836,999,36572,.24588284E-3,.5403E-4,0
TIANQIN 1 (CAS-6),2019-093A,2026-07-21T14:43:52.529088,14.95573365,.00098325,97.7799,286.2077,303.4159,56.6120,0,U,44879,999,35719,.65607852E-4,.67E-5,0
ETRSS-1,2019-093B,2026-07-21T14:39:02.168928,14.96026182,.00099073,97.7820,286.6945,304.1701,55.8580,0,U,44880,999,35720,.88952477E-4,.94E-5,0
TIANYAN 01,2019-093C,2026-07-21T15:25:37.437888,14.86568109,.00129707,97.7513,274.0327,340.2699,19.8014,0,U,44881,999,35653,.81715941E-4,.671E-5,0
TIANYAN 02,2019-093D,2026-07-21T14:47:46.519296,15.05577649,.0012513,97.7931,297.7462,264.5527,95.4272,0,U,44882,999,35779,.4172766E-3,.596E-4,0
CBERS 4A,2019-093E,2026-07-21T14:30:22.054752,14.81450409,.00018449,98.0171,270.0719,127.2500,232.8881,0,U,44883,999,35617,.82864941E-4,.595E-5,0
WEILAI 1R,2019-093F,2026-07-21T14:11:31.460640,15.00900452,.00148415,97.7888,292.5429,285.9847,73.9741,0,U,44884,999,35758,.29536577E-3,.3707E-4,0
